LEMUR-1                 
1 40044U 14033AL  22202.06726558  .00001067  00000+0  16168-3 0  9998
2 40044  97.6583  28.7894 0059547  51.2775 309.3737 14.74914892434830
LEMUR-2-XIAOQING        
1 41871U 16062C   22201.97426978  .00026055  00000+0  67603-3 0  9997
2 41871  51.6337 189.0286 0004990  59.0889 301.0585 15.38801307315112
LEMUR-2-SOKOLSKY        
1 41872U 16062D   22202.39870818  .00025203  00000+0  65359-3 0  9991
2 41872  51.6766 196.8547 0000833 133.7460 226.3593 15.38844887315143
LEMUR-2-ANUBHAVTHAKUR   
1 41873U 16062E   22202.50597844  .00007020  00000+0  26520-3 0  9994
2 41873  51.6793 237.6863 0008118  41.7150 318.4448 15.28064449314549
LEMUR-2-WINGO           
1 41874U 16062F   22201.83653433  .00021334  00000+0  57758-3 0  9998
2 41874  51.6468 200.0611 0009913 347.6851  12.3889 15.37576963314968
LEMUR-2-JOBANPUTRA      
1 41991U 17008AV  22201.70216743  .00016803  00000+0  52471-3 0  9996
2 41991  97.2571 262.5029 0008166 115.5250 244.6838 15.33227113301279
LEMUR-2-SPIRE-MINIONS   
1 41992U 17008AW  22201.67692114  .00021675  00000+0  60096-3 0  9998
2 41992  97.2662 266.8756 0007165 106.0186 254.1849 15.36931123301517
LEMUR-2-SATCHMO         
1 41993U 17008AX  22202.15470683  .00011199  00000+0  36121-3 0  9990
2 41993  97.2595 263.4571 0007996 112.0400 248.1692 15.32287120301379
LEMUR-2-SMITA-SHARAD    
1 41994U 17008AY  22202.44377549  .00019041  00000+0  52843-3 0  9993
2 41994  97.2654 267.4065 0007295 103.8455 256.3601 15.36926175301621
LEMUR-2-RDEATON         
1 41995U 17008AZ  22202.45099324  .00011860  00000+0  38284-3 0  9991
2 41995  97.2614 263.9657 0008656 122.2381 237.9701 15.32240484302109
LEMUR-2-TACHIKOMA       
1 41996U 17008BA  22202.13413408  .00020952  00000+0  58853-3 0  9996
2 41996  97.2695 267.3507 0007744 118.6063 241.5962 15.36526625301459
LEMUR-2-NOGUECORREIG    
1 41997U 17008BB  22201.63604237  .00021735  00000+0  60032-3 0  9995
2 41997  97.2675 267.3291 0007997 118.2603 241.9450 15.37043595301518
LEMUR-2-MIA-GRACE       
1 41998U 17008BC  22201.73337488  .00013630  00000+0  44213-3 0  9996
2 41998  97.2599 262.8604 0008528 125.4839 234.7200 15.32050963301216
LEMUR-2-ANGELA          
1 42752U 17019B   22202.36032897  .00022543  00000+0  50364-3 0  9990
2 42752  51.6354  75.0023 0007115 174.2659 185.8410 15.43403524286410
LEMUR-2-JENNYBARNA      
1 42753U 17019C   22202.26910919  .00046820  00000+0  71032-3 0  9999
2 42753  51.6308  48.5357 0005797 191.9229 168.1625 15.54113885286713
LEMUR-2-ROBMOORE        
1 42754U 17019D   22202.35479293  .00017875  00000+0  40959-3 0  9997
2 42754  51.6351  76.4186 0006310 175.9904 184.1134 15.42813012286377
LEMUR-2-SPIROVISION     
1 42755U 17019E   22202.30475049  .00055484  00000+0  85832-3 0  9995
2 42755  51.6350  49.0173 0006087 193.7137 338.8170 15.53501854286622
LEMUR-2-SHAINAJOHL      
1 42771U 17036G   22202.15092942  .00014396  00000+0  47890-3 0  9991
2 42771  97.1999 242.8235 0011344 186.6680 173.4413 15.31198462282141
LEMUR-2-XUENITERENCE    
1 42772U 17036H   22201.82200786  .00019689  00000+0  62679-3 0  9994
2 42772  97.1925 242.6303 0010802 184.0755 176.0401 15.32552613282136
LEMUR-2-LUCYBRYCE       
1 42773U 17036J   22202.39413867  .00012061  00000+0  43184-3 0  9991
2 42773  97.2035 243.3184 0011557 187.2177 172.8899 15.28842750282152
LEMUR-2-KUNGFOO         
1 42774U 17036K   22202.08170928  .00016225  00000+0  53421-3 0  9997
2 42774  97.1994 243.1991 0010893 184.3182 175.7968 15.31507965282155
LEMUR-2-LYNSEY-SYMO     
1 42779U 17036Q   22202.37660878  .00017689  00000+0  53203-3 0  9995
2 42779  97.2029 247.9522 0009201 179.1605 180.9656 15.34398432282449
LEMUR-2-LISASAURUS      
1 42780U 17036R   22202.36583401  .00016791  00000+0  56013-3 0  9997
2 42780  97.2032 244.6329 0009472 189.9942 170.1113 15.31092304282240
LEMUR-2-SAM-AMELIA      
1 42781U 17036S   22201.69489531  .00013517  00000+0  47311-3 0  9996
2 42781  97.2037 244.7637 0009837 191.5971 168.5045 15.29576149282162
LEMUR-2-MCPEAKE         
1 42782U 17036T   22202.09473691  .00014678  00000+0  47027-3 0  9995
2 42782  97.2007 246.0359 0009049 184.8465 175.2692 15.32425555282312
LEMUR-2-GREENBERG       
1 42837U 17042N   22201.55588322  .00003313  00000+0  31723-3 0  9991
2 42837  97.4261  57.3375 0010901 243.9443 116.0656 14.93770653273210
LEMUR-2-ANDIS           
1 42838U 17042P   22201.82034598  .00003464  00000+0  33139-3 0  9993
2 42838  97.4248  57.5311 0011051 242.3537 117.6563 14.93786234273252
LEMUR-2-MONSON          
1 42839U 17042Q   22201.84446020  .00002214  00000+0  21486-3 0  9997
2 42839  97.4258  57.3126 0010873 243.4108 116.5999 14.93562084273237
LEMUR-2-FURIAUS         
1 42840U 17042R   22201.55832211  .00002453  00000+0  23977-3 0  9990
2 42840  97.4297  57.4082 0011088 244.8841 115.1229 14.93171990273190
LEMUR-2-PETERG          
1 42841U 17042S   22202.06784449  .00001691  00000+0  16458-3 0  9996
2 42841  97.4314  58.9604 0010664 238.0247 121.9937 14.93739965273330
LEMUR-2-DEMBITZ         
1 42842U 17042T   22202.18130280  .00002121  00000+0  20378-3 0  9993
2 42842  97.4292  58.9307 0010820 238.5953 121.4210 14.94002610273351
LEMUR-2-ZACHARY         
1 42845U 17042W   22201.83415815  .00003368  00000+0  31542-3 0  9996
2 42845  97.4187  57.7774 0010792 240.3501 119.6646 14.94645199273346
LEMUR-2-MCCAFFERTY      
1 43123U 18004N   22201.76439066  .00021088  00000+0  58808-3 0  9994
2 43123  97.3763 281.2554 0006051 213.0659 147.0208 15.36765463251696
LEMUR-2-PETERWEBSTER    
1 43124U 18004P   22201.73190927  .00021459  00000+0  60900-3 0  9990
2 43124  97.3757 280.8726 0006158 213.8387 146.2465 15.36214299251669
LEMUR-2-BROWNCOW        
1 43125U 18004Q   22201.78453201  .00025051  00000+0  66522-3 0  9991
2 43125  97.3813 282.6385 0006086 207.0802 153.0126 15.38250411251760
LEMUR-2-DAVEWILSON      
1 43126U 18004R   22201.76866748  .00023188  00000+0  60784-3 0  9997
2 43126  97.3797 282.4313 0005924 207.3914 152.7020 15.38665317251751
LEMUR-2-MARSHALL        
1 43165U 18010C   22202.52726988  .00015755  00000+0  53888-3 0  9991
2 43165  82.9128  34.2370 0025092 209.0125 150.9724 15.29824045249695
LEMUR-2-TALLHAMN-ATC    
1 43167U 18010E   22201.86693585  .00011597  00000+0  44511-3 0  9998
2 43167  82.9167  41.0587 0019466 236.7513 123.1861 15.26158523249212
LEMUR-2-JIN-LUEN        
1 43182U 18014C   22201.69667090  .00003442  00000+0  28557-3 0  9994
2 43182  97.6463 104.8869 0011763 176.8099 183.3201 14.99394957243871
LEMUR-2-URAMCHANSOL     
1 43183U 18014D   22202.17454895  .00003542  00000+0  29430-3 0  9998
2 43183  97.6454 105.5694 0011854 182.4646 177.6521 14.99321261243956
LEMUR-2-KADI            
1 43184U 18014E   22201.68362102  .00004552  00000+0  38057-3 0  9990
2 43184  97.6446 104.9699 0013103 178.4330 181.6936 14.98924417243877
LEMUR-2-THENICKMOLO     
1 43185U 18014F   22201.71722863  .00003840  00000+0  32047-3 0  9991
2 43185  97.6451 105.2220 0012367 188.2000 171.9023 14.99091634243889
LEMUR-2-VU              
1 43558U 18046E   22202.13419847  .00038929  00000+0  71632-3 0  9991
2 43558  51.6385 359.8927 0006807 167.5525 192.5633 15.48777791224766
LEMUR-2-ALEXANDER       
1 43559U 18046F   22201.81914587  .00046884  00000+0  82756-3 0  9995
2 43559  51.6388 359.3185 0006627 173.9180 186.1891 15.49879034224522
LEMUR-2-YUASA           
1 43560U 18046G   22201.64936103  .00046956  00000+0  85357-3 0  9996
2 43560  51.6392   2.6575 0006891 179.0132 181.0871 15.49039761224681
LEMUR-2-TOMHENDERSON    
1 43561U 18046H   22201.67552875  .00040761  00000+0  80008-3 0  9996
2 43561  51.6399   5.7887 0006662 178.9819 181.1183 15.46896050224209
LEMUR-2-ZUPANSKI        
1 43695U 18088F   22201.95265201  .00014319  00000+0  49833-3 0  9996
2 43695  85.0287 291.1468 0013303  22.2277 337.9543 15.29482549204999
LEMUR-2-CHANUSIAK       
1 43697U 18088H   22201.76214217  .00017658  00000+0  59571-3 0  9997
2 43697  85.0353 291.2852 0011252   1.1409 358.9861 15.30522444205119
LEMUR-2-ORZULAK         
1 43731U 18096N   22201.77127506  .00038060  00000+0  78876-3 0  9999
2 43731  97.3634 287.1589 0011606 282.9745  77.0207 15.45577656203394
LEMUR-2-KOBYSZCZE       
1 43732U 18096P   22201.76681544  .00036851  00000+0  75383-3 0  9992
2 43732  97.3649 287.6035 0011679 280.0498  79.9433 15.45964622203414
LEMUR-2-DULY            
1 43745U 18096AC  22201.78209930  .00033702  00000+0  72353-3 0  9999
2 43745  97.3639 287.3161 0012397 282.0716  77.9144 15.44552980203413
LEMUR-2-VLADIMIR        
1 43746U 18096AD  22201.73036883  .00045953  00000+0  88788-3 0  9990
2 43746  97.3631 287.9626 0011254 279.7131  80.2848 15.47583483203472
LEMUR-2-CHRISTINAHOLT   
1 43882U 18111G   22201.68126027  .00004981  00000+0  40890-3 0  9991
2 43882  97.6673 108.8030 0011907 192.0369 168.0572 14.99599568194742
LEMUR-2-TINYKEV         
1 43883U 18111H   22201.74724102  .00006250  00000+0  50940-3 0  9995
2 43883  97.6670 109.0523 0012003 189.8833 170.2156 14.99776946194760
LEMUR-2-REMY-COLTON     
1 43884U 18111J   22202.50682047  .00004559  00000+0  37037-3 0  9994
2 43884  97.6790 110.2954 0006591 199.8332 160.2636 15.00083802192907
LEMUR-2-GUSTAVO         
1 43885U 18111K   22201.73990789  .00004751  00000+0  39014-3 0  9995
2 43885  97.6689 109.2139 0012029 199.0560 161.0214 14.99606509194765
LEMUR-2-ZO              
1 43886U 18111L   22202.19739433  .00004124  00000+0  33864-3 0  9995
2 43886  97.6704 109.9457 0011378 205.1797 154.8873 14.99696649192843
LEMUR-2-NATALIEMURRAY   
1 43887U 18111M   22202.49284227  .00004967  00000+0  40523-3 0  9990
2 43887  97.6731 110.5185 0010625 171.8798 188.2599 14.99854657194904
LEMUR-2-SARAHBETTYBOO   
1 43888U 18111N   22201.71899792  .00004155  00000+0  33942-3 0  9990
2 43888  97.6768 110.0121 0008973 207.1890 152.8865 14.99910677194794
LEMUR-2-DAISY-HARPER    
1 43889U 18111P   22201.78494770  .00004204  00000+0  34290-3 0  9997
2 43889  97.6783 110.2650 0008727 207.4187 152.6577 14.99962131194802
